{
    "week": 289,
    "satellites": [
        {
            "Name": "GSAT0226 (GALILEO 31)",
            "Line1": "1 61183U 24167B   24292.03156737 -.00000008  00000+0  00000+0 0  9997",
            "Line2": "2 61183  55.3994 237.9810 0032933  97.8717 262.4702  1.71381387   502",
            "SatelliteNumber": "61183",
            "Classification": "U",
            "LaunchYear": "24",
            "LaunchNumber": "167",
            "PieceOfLaunch": "B",
            "EpochYear": "24",
            "EpochDay": 292.03156737,
            "FirstDerivativeMeanMotion": -8e-08,
            "SecondDerivativeMeanMotion": "00000+0",
            "BSTAR": "00000+0",
            "SetNumber": "999",
            "Inclination": 55.3994,
            "RAAN": 237.981,
            "Eccentricity": 0.0032933,
            "ArgumentOfPerigee": 97.8717,
            "MeanAnomaly": 262.4702,
            "MeanMotion": 1.71381387,
            "RevolutionNumber": "50"
        }
    ]
}